KUIPER-00196            
1 67144U 25301M   26003.89228984  .00041030  00000+0  11441-2 0  9994
2 67144  51.8737  18.2221 0003848 121.0736 239.0629 15.36350795  3776
KUIPER-00204            
1 67145U 25301N   26003.91668981 -.00381826  00000+0 -11555-1 0  9990
2 67145  51.8757  18.0289 0003702  91.9176  73.6635 15.35201392  3881
KUIPER-00210            
1 67146U 25301P   26003.91451256  .00042778  00000+0  12577-2 0  9990
2 67146  51.8604  18.3560 0010738 177.0920 183.0130 15.34627786  3949
KUIPER-00221            
1 67147U 25301Q   26003.89583859  .00062705  00000+0  17512-2 0  9999
2 67147  51.8725  18.2461 0005130 138.8735 221.2639 15.36108114  3773
KUIPER-00232            
1 67148U 25301R   26003.94894746  .00058282  00000+0  15825-2 0  9996
2 67148  51.8742  17.8521 0002307  73.7995 286.3245 15.37025795  3783
KUIPER-00241            
1 67149U 25301S   26003.88952165  .00047326  00000+0  13073-2 0  9990
2 67149  51.8746  18.2006 0002799 115.8393 244.2883 15.36583461  4102
KUIPER-00245            
1 67150U 25301T   26003.89717995 -.00026555  00000+0 -75938-3 0  9995
2 67150  51.8733  18.2536 0005790 139.6509 220.4907 15.35086031  3770
KUIPER-00246            
1 67151U 25301U   26003.89305822  .00056961  00000+0  15817-2 0  9999
2 67151  51.8739  18.2256 0004143 138.2694 221.8609 15.36333410  3790
KUIPER-00247            
1 67152U 25301V   26003.85156413  .00015590  00000+0  47272-3 0  9990
2 67152  51.8637  18.6920 0010432 179.3786 180.7214 15.34254110  3765
KUIPER-00248            
1 67153U 25301W   26003.90839344  .00031683  00000+0  91963-3 0  9995
2 67153  51.8682  18.3249 0008875 167.2208 192.9005 15.35191452  3943
KUIPER-00249            
1 67154U 25301X   26003.90631051  .00032690  00000+0  94448-3 0  9991
2 67154  51.8660  18.3103 0008292 163.7466 196.3787 15.35325544  3776
KUIPER-00250            
1 67155U 25301Y   26003.90011652  .00032345  00000+0  91887-3 0  9992
2 67155  51.8722  18.2732 0006540 153.2573 206.8751 15.35872367  3802
